FENGYUN 1C DEB          
1 31038U 99025BEG 17345.62444504  .00000227  00000-0  87539-4 0  9996
2 31038  99.0445 222.7849 0094912 199.6604 160.0912 14.37830321561690
